SES-2                   
1 37809U 11049A   26062.56922064 -.00000210  00000+0  00000+0 0  9994
2 37809   0.0166  76.5814 0002927 263.8548 298.7948  1.00272067 52907
QUETZSAT 1              
1 37826U 11054A   26062.78502179 -.00000255  00000+0  00000+0 0  9993
2 37826   0.0544 289.4501 0002734  68.0017   9.6854  1.00271359 48819
SES-4                   
1 38087U 12007A   26062.79611517 -.00000182  00000+0  00000+0 0  9999
2 38087   0.0344  63.5020 0002474 290.1006  72.5462  1.00269945 51165
SES-5                   
1 38652U 12036A   26062.80140188  .00000020  00000+0  00000+0 0  9992
2 38652   0.0612 309.6626 0002033  28.2758 117.0916  1.00271730 43404
ASTRA 2F                
1 38778U 12051A   26062.80599522  .00000136  00000+0  00000+0 0  9996
2 38778   0.0742 258.5205 0002577  16.5698 204.8076  1.00273947 40083
SES-6                   
1 39172U 13026A   26062.79238848 -.00000275  00000+0  00000+0 0  9992
2 39172   0.0674 287.8312 0001851  59.0075  59.4475  1.00272246 46663
O3B FM5                 
1 39188U 13031A   26062.49793291 -.00000028  00000+0  00000+0 0  9996
2 39188   0.0975  14.3261 0003337 319.2937  26.3563  5.00116449231752
O3B FM4                 
1 39189U 13031B   26062.41719186 -.00000028  00000+0  00000+0 0  9990
2 39189   0.0555 345.1458 0005035   5.1565   9.6809  5.00115234231753
O3B FM2                 
1 39190U 13031C   26062.68276889 -.00000028  00000+0  00000+0 0  9999
2 39190   0.0565 339.0485 0002841   0.4644  20.4688  5.00115981231830
O3B PFM                 
1 39191U 13031D   26062.29709969 -.00000028  00000+0  00000+0 0  9997
2 39191   0.0664   7.6623 0005107 349.0732   3.2541  5.00116017231378
ASTRA 2E                
1 39285U 13056A   26062.80608189  .00000137  00000+0  00000+0 0  9997
2 39285   0.0687  29.4101 0002195 306.7927 144.0147  1.00271776 45368
SES-8                   
1 39460U 13071A   26062.71339389 -.00000283  00000+0  00000+0 0  9995
2 39460   0.0597 272.6916 0001644  90.6333 149.9506  1.00273111 43385
ASTRA 5B                
1 39617U 14011B   26062.80512854  .00000123  00000+0  00000+0 0  9996
2 39617   0.0923 298.2159 0004176  26.4659 150.1995  1.00270604 43612
O3B FM3                 
1 40079U 14038A   26062.76350395 -.00000028  00000+0  00000+0 0  9999
2 40079   0.0530 353.3993 0000537  51.2529 315.3452  5.00115596207761
O3B FM7                 
1 40080U 14038B   26061.31035470 -.00000029  00000+0  00000+0 0  9996
2 40080   0.0588 348.9474 0004488 339.4059  31.6123  5.00115622212532
O3B FM6                 
1 40081U 14038C   26059.33845883 -.00000028  00000+0  00000+0 0  9992
2 40081   0.0550 351.2998 0002672 345.9055  22.7755  5.00115665212383
O3B FM8                 
1 40082U 14038D   26062.59002639 -.00000028  00000+0  00000+0 0  9999
2 40082   0.0559 350.7342 0002659 353.8071  15.4437  5.00115992212661
