[{"OBJECT_NAME":"SES-2","OBJECT_ID":"2011-049A","EPOCH":"2026-03-03T13:39:40.663296","MEAN_MOTION":1.00272067,"ECCENTRICITY":0.0002927,"INCLINATION":0.0166,"RA_OF_ASC_NODE":76.5814,"ARG_OF_PERICENTER":263.8548,"MEAN_ANOMALY":298.7948,"EPHEMERIS_TYPE":0,"CLASSIFICATION_TYPE":"U","NORAD_CAT_ID":37809,"ELEMENT_SET_NO":999,"REV_AT_EPOCH":5290,"BSTAR":0,"MEAN_MOTION_DOT":-2.1e-6,"MEAN_MOTION_DDOT":0},{"OBJECT_NAME":"QUETZSAT 1","OBJECT_ID":"2011-054A","EPOCH":"2026-03-03T18:50:25.882656","MEAN_MOTION":1.00271359,"ECCENTRICITY":0.0002734,"INCLINATION":0.0544,"RA_OF_ASC_NODE":289.4501,"ARG_OF_PERICENTER":68.0017,"MEAN_ANOMALY":9.6854,"EPHEMERIS_TYPE":0,"CLASSIFICATION_TYPE":"U","NORAD_CAT_ID":37826,"ELEMENT_SET_NO":999,"REV_AT_EPOCH":4881,"BSTAR":0,"MEAN_MOTION_DOT":-2.55e-6,"MEAN_MOTION_DDOT":0},{"OBJECT_NAME":"SES-4","OBJECT_ID":"2012-007A","EPOCH":"2026-03-03T19:06:24.350688","MEAN_MOTION":1.00269945,"ECCENTRICITY":0.0002474,"INCLINATION":0.0344,"RA_OF_ASC_NODE":63.502,"ARG_OF_PERICENTER":290.1006,"MEAN_ANOMALY":72.5462,"EPHEMERIS_TYPE":0,"CLASSIFICATION_TYPE":"U","NORAD_CAT_ID":38087,"ELEMENT_SET_NO":999,"REV_AT_EPOCH":5116,"BSTAR":0,"MEAN_MOTION_DOT":-1.82e-6,"MEAN_MOTION_DDOT":0},{"OBJECT_NAME":"SES-5","OBJECT_ID":"2012-036A","EPOCH":"2026-03-03T19:14:01.122432","MEAN_MOTION":1.0027173,"ECCENTRICITY":0.0002033,"INCLINATION":0.0612,"RA_OF_ASC_NODE":309.6626,"ARG_OF_PERICENTER":28.2758,"MEAN_ANOMALY":117.0916,"EPHEMERIS_TYPE":0,"CLASSIFICATION_TYPE":"U","NORAD_CAT_ID":38652,"ELEMENT_SET_NO":999,"REV_AT_EPOCH":4340,"BSTAR":0,"MEAN_MOTION_DOT":2.0e-7,"MEAN_MOTION_DDOT":0},{"OBJECT_NAME":"ASTRA 2F","OBJECT_ID":"2012-051A","EPOCH":"2026-03-03T19:20:37.987008","MEAN_MOTION":1.00273947,"ECCENTRICITY":0.0002577,"INCLINATION":0.0742,"RA_OF_ASC_NODE":258.5205,"ARG_OF_PERICENTER":16.5698,"MEAN_ANOMALY":204.8076,"EPHEMERIS_TYPE":0,"CLASSIFICATION_TYPE":"U","NORAD_CAT_ID":38778,"ELEMENT_SET_NO":999,"REV_AT_EPOCH":4008,"BSTAR":0,"MEAN_MOTION_DOT":1.36e-6,"MEAN_MOTION_DDOT":0},{"OBJECT_NAME":"SES-6","OBJECT_ID":"2013-026A","EPOCH":"2026-03-03T19:01:02.364672","MEAN_MOTION":1.00272246,"ECCENTRICITY":0.0001851,"INCLINATION":0.0674,"RA_OF_ASC_NODE":287.8312,"ARG_OF_PERICENTER":59.0075,"MEAN_ANOMALY":59.4475,"EPHEMERIS_TYPE":0,"CLASSIFICATION_TYPE":"U","NORAD_CAT_ID":39172,"ELEMENT_SET_NO":999,"REV_AT_EPOCH":4666,"BSTAR":0,"MEAN_MOTION_DOT":-2.75e-6,"MEAN_MOTION_DDOT":0},{"OBJECT_NAME":"O3B FM5","OBJECT_ID":"2013-031A","EPOCH":"2026-03-03T11:57:01.403424","MEAN_MOTION":5.00116449,"ECCENTRICITY":0.0003337,"INCLINATION":0.0975,"RA_OF_ASC_NODE":14.3261,"ARG_OF_PERICENTER":319.2937,"MEAN_ANOMALY":26.3563,"EPHEMERIS_TYPE":0,"CLASSIFICATION_TYPE":"U","NORAD_CAT_ID":39188,"ELEMENT_SET_NO":999,"REV_AT_EPOCH":23175,"BSTAR":0,"MEAN_MOTION_DOT":-2.8e-7,"MEAN_MOTION_DDOT":0},{"OBJECT_NAME":"O3B FM4","OBJECT_ID":"2013-031B","EPOCH":"2026-03-03T10:00:45.376704","MEAN_MOTION":5.00115234,"ECCENTRICITY":0.00050359,"INCLINATION":0.0555,"RA_OF_ASC_NODE":345.1458,"ARG_OF_PERICENTER":5.1565,"MEAN_ANOMALY":9.6809,"EPHEMERIS_TYPE":0,"CLASSIFICATION_TYPE":"U","NORAD_CAT_ID":39189,"ELEMENT_SET_NO":999,"REV_AT_EPOCH":23175,"BSTAR":0,"MEAN_MOTION_DOT":-2.8e-7,"MEAN_MOTION_DDOT":0},{"OBJECT_NAME":"O3B FM2","OBJECT_ID":"2013-031C","EPOCH":"2026-03-03T16:23:11.232096","MEAN_MOTION":5.00115981,"ECCENTRICITY":0.0002841,"INCLINATION":0.0565,"RA_OF_ASC_NODE":339.0485,"ARG_OF_PERICENTER":0.4644,"MEAN_ANOMALY":20.4688,"EPHEMERIS_TYPE":0,"CLASSIFICATION_TYPE":"U","NORAD_CAT_ID":39190,"ELEMENT_SET_NO":999,"REV_AT_EPOCH":23183,"BSTAR":0,"MEAN_MOTION_DOT":-2.8e-7,"MEAN_MOTION_DDOT":0},{"OBJECT_NAME":"O3B PFM","OBJECT_ID":"2013-031D","EPOCH":"2026-03-03T07:07:49.413216","MEAN_MOTION":5.00116017,"ECCENTRICITY":0.00051075,"INCLINATION":0.0664,"RA_OF_ASC_NODE":7.6623,"ARG_OF_PERICENTER":349.0732,"MEAN_ANOMALY":3.2541,"EPHEMERIS_TYPE":0,"CLASSIFICATION_TYPE":"U","NORAD_CAT_ID":39191,"ELEMENT_SET_NO":999,"REV_AT_EPOCH":23137,"BSTAR":0,"MEAN_MOTION_DOT":-2.8e-7,"MEAN_MOTION_DDOT":0},{"OBJECT_NAME":"ASTRA 2E","OBJECT_ID":"2013-056A","EPOCH":"2026-03-03T19:20:45.475296","MEAN_MOTION":1.00271776,"ECCENTRICITY":0.0002195,"INCLINATION":0.0687,"RA_OF_ASC_NODE":29.4101,"ARG_OF_PERICENTER":306.7927,"MEAN_ANOMALY":144.0147,"EPHEMERIS_TYPE":0,"CLASSIFICATION_TYPE":"U","NORAD_CAT_ID":39285,"ELEMENT_SET_NO":999,"REV_AT_EPOCH":4536,"BSTAR":0,"MEAN_MOTION_DOT":1.37e-6,"MEAN_MOTION_DDOT":0},{"OBJECT_NAME":"SES-8","OBJECT_ID":"2013-071A","EPOCH":"2026-03-03T17:07:17.232096","MEAN_MOTION":1.00273111,"ECCENTRICITY":0.0001644,"INCLINATION":0.0597,"RA_OF_ASC_NODE":272.6916,"ARG_OF_PERICENTER":90.6333,"MEAN_ANOMALY":149.9506,"EPHEMERIS_TYPE":0,"CLASSIFICATION_TYPE":"U","NORAD_CAT_ID":39460,"ELEMENT_SET_NO":999,"REV_AT_EPOCH":4338,"BSTAR":0,"MEAN_MOTION_DOT":-2.83e-6,"MEAN_MOTION_DDOT":0},{"OBJECT_NAME":"ASTRA 5B","OBJECT_ID":"2014-011B","EPOCH":"2026-03-03T19:19:23.105856","MEAN_MOTION":1.00270604,"ECCENTRICITY":0.0004176,"INCLINATION":0.0923,"RA_OF_ASC_NODE":298.2159,"ARG_OF_PERICENTER":26.4659,"MEAN_ANOMALY":150.1995,"EPHEMERIS_TYPE":0,"CLASSIFICATION_TYPE":"U","NORAD_CAT_ID":39617,"ELEMENT_SET_NO":999,"REV_AT_EPOCH":4361,"BSTAR":0,"MEAN_MOTION_DOT":1.23e-6,"MEAN_MOTION_DDOT":0},{"OBJECT_NAME":"O3B FM3","OBJECT_ID":"2014-038A","EPOCH":"2026-03-03T18:19:26.741280","MEAN_MOTION":5.00115596,"ECCENTRICITY":5.37e-5,"INCLINATION":0.053,"RA_OF_ASC_NODE":353.3993,"ARG_OF_PERICENTER":51.2529,"MEAN_ANOMALY":315.3452,"EPHEMERIS_TYPE":0,"CLASSIFICATION_TYPE":"U","NORAD_CAT_ID":40079,"ELEMENT_SET_NO":999,"REV_AT_EPOCH":20776,"BSTAR":0,"MEAN_MOTION_DOT":-2.8e-7,"MEAN_MOTION_DDOT":0},{"OBJECT_NAME":"O3B FM7","OBJECT_ID":"2014-038B","EPOCH":"2026-03-02T07:26:54.646080","MEAN_MOTION":5.00115622,"ECCENTRICITY":0.00044887,"INCLINATION":0.0588,"RA_OF_ASC_NODE":348.9474,"ARG_OF_PERICENTER":339.4059,"MEAN_ANOMALY":31.6123,"EPHEMERIS_TYPE":0,"CLASSIFICATION_TYPE":"U","NORAD_CAT_ID":40080,"ELEMENT_SET_NO":999,"REV_AT_EPOCH":21253,"BSTAR":0,"MEAN_MOTION_DOT":-2.9e-7,"MEAN_MOTION_DDOT":0},{"OBJECT_NAME":"O3B FM6","OBJECT_ID":"2014-038C","EPOCH":"2026-02-28T08:07:22.842912","MEAN_MOTION":5.00115665,"ECCENTRICITY":0.00026722,"INCLINATION":0.055,"RA_OF_ASC_NODE":351.2998,"ARG_OF_PERICENTER":345.9055,"MEAN_ANOMALY":22.7755,"EPHEMERIS_TYPE":0,"CLASSIFICATION_TYPE":"U","NORAD_CAT_ID":40081,"ELEMENT_SET_NO":999,"REV_AT_EPOCH":21238,"BSTAR":0,"MEAN_MOTION_DOT":-2.8e-7,"MEAN_MOTION_DDOT":0},{"OBJECT_NAME":"O3B FM8","OBJECT_ID":"2014-038D","EPOCH":"2026-03-03T14:09:38.280096","MEAN_MOTION":5.00115992,"ECCENTRICITY":0.0002659,"INCLINATION":0.0559,"RA_OF_ASC_NODE":350.7342,"ARG_OF_PERICENTER":353.8071,"MEAN_ANOMALY":15.4437,"EPHEMERIS_TYPE":0,"CLASSIFICATION_TYPE":"U","NORAD_CAT_ID":40082,"ELEMENT_SET_NO":999,"REV_AT_EPOCH":21266,"BSTAR":0,"MEAN_MOTION_DOT":-2.8e-7,"MEAN_MOTION_DDOT":0}]
